STARLINK-1150           
1 45067U 20006Z   25171.58335648  .00117222  00000+0  13899-2 0  9994
2 45067  53.0543 354.8089 0002346 225.9774 272.8509 15.60367465  5766
STARLINK-1161           
1 45068U 20006AA  25171.58335648  .00192630  24763-4  60718-3 0  9991
2 45068  53.0134 290.2457 0004063 271.8963 340.4143 15.90985393  5915
STARLINK-1167           
1 45071U 20006AD  25171.52040886  .00001047  00000+0  89188-4 0  9993
2 45071  53.0554   3.5443 0001054  88.0265 272.0844 15.06397755297226
STARLINK-1168           
1 45072U 20006AE  25171.52408960  .00000064  00000+0  23209-4 0  9995
2 45072  53.0551   3.5269 0001216  90.0012 270.1116 15.06397831297229
STARLINK-1172           
1 45074U 20006AG  25171.53514967 -.00000033  00000+0  16689-4 0  9994
2 45074  53.0551   3.4764 0001458  95.9241 264.1915 15.06398874297224
STARLINK-1153           
1 45080U 20006AN  25170.84955629  .00001105  00000+0  93038-4 0  9991
2 45080  53.0557   6.5554 0001423  85.1102 275.0050 15.06404109297126
STARLINK-1151           
1 45081U 20006AP  25171.49829678  .00000606  00000+0  59560-4 0  9995
2 45081  53.0551   3.7167 0001695  85.6356 274.4826 15.06399044297223
STARLINK-1190           
1 45083U 20006AR  25171.58335648  .00615779  00000+0  97998-2 0  9994
2 45083  53.0557  13.8231 0001106  97.5316  85.4798 15.50531071  5862
STARLINK-1173           
1 45084U 20006AS  25171.58335648  .01078228  00000+0  19677-1 0  9995
2 45084  53.0579 339.1440 0001416 102.3833 341.9036 15.46418569  5794
STARLINK-1179           
1 45085U 20006AT  25171.58335648  .00118222  00000+0  13816-2 0  9994
2 45085  53.0535 335.6463 0000725 224.4546 202.5067 15.60742555  5665
STARLINK-1185           
1 45087U 20006AV  25171.47433658  .00001116  00000+0  93821-4 0  9993
2 45087  53.0560 343.7487 0002679 106.0526 254.0758 15.06393306297505
STARLINK-1183           
1 45088U 20006AW  25171.49644769  .00001222  00000+0  10093-3 0  9990
2 45088  53.0552 343.6494 0001455  76.2001 283.9150 15.06401333297508
STARLINK-1176           
1 45090U 20006AY  25171.58335648  .00086099  00000+0  13531-2 0  9990
2 45090  53.0579 335.7064 0003493 240.5329 209.1713 15.52921983  5767
STARLINK-1142           
1 45093U 20006BB  25170.69018385  .00039602  00000+0  10099-2 0  9994
2 45093  53.0462 319.4821 0000607  10.3819 349.7196 15.39159828298117
STARLINK-1146           
1 45094U 20006BC  25171.58335648  .00105173  00000+0  12641-2 0  9990
2 45094  53.0575 336.6654 0000601 322.8050  76.6229 15.60065138  5719
STARLINK-1147           
1 45095U 20006BD  25171.58335648  .01282285  00000+0  18148-1 0  9999
2 45095  53.0547 338.8550 0001321  92.0204 255.0345 15.53195128  5813
STARLINK-1152           
1 45096U 20006BE  25171.46921071  .00029284  00000+0  15020-2 0  9992
2 45096  53.0543 338.2619 0005748 144.9767 215.1605 15.16323812297572
STARLINK-1184           
1 45098U 20006BG  25171.51119255 -.00001536  00000+0 -84265-4 0  9994
2 45098  53.0552 343.5825 0001400  96.4940 263.6209 15.06396283297509
STARLINK-1193           
1 45100U 20006BJ  25171.44115415  .00000219  00000+0  33585-4 0  9998
2 45100  53.0551 343.8988 0001418  95.9489 264.1662 15.06401410297492
STARLINK-1143           
1 45179U 20012B   25171.57689357  .00009702  00000+0  39084-3 0  9991
2 45179  53.0553 130.2982 0002486  51.9871 308.1351 15.25501454295510
STARLINK-1200           
1 45181U 20012D   25171.58335648  .01394696  00000+0  13487-1 0  9993
2 45181  53.0520 137.2197 0001090  68.7660  51.0761 15.63147367  5805
STARLINK-1201           
1 45182U 20012E   25170.29588458  .00118648  00000+0  12141-2 0  9997
2 45182  53.0460 121.2768 0002328 136.4472 223.6726 15.64155045295379
STARLINK-1202           
1 45183U 20012F   25171.30478593  .00001140  00000+0  95417-4 0  9996
2 45183  53.0541 144.5071 0001463  71.3570 288.7578 15.06401257295293
STARLINK-1216           
1 45185U 20012H   25171.23105945  .00000620  00000+0  60508-4 0  9993
2 45185  53.0542 144.8390 0001355  88.8434 271.2710 15.06391800295225
STARLINK-1224           
1 45186U 20012J   25171.58335648  .00068954  00000+0  66126-3 0  9992
2 45186  53.0494 136.9568 0000825  91.6959 270.0170 15.66026549  5818
STARLINK-1225           
1 45187U 20012K   25171.18312814  .00000421  00000+0  47135-4 0  9994
2 45187  53.0549 145.0558 0001181  83.3651 276.7472 15.06410079295260
STARLINK-1228           
1 45188U 20012L   25171.44722807  .00129122  00000+0  11817-2 0  9997
2 45188  53.0463  77.2688 0005880  91.4875 268.6813 15.66895657296191
STARLINK-1230           
1 45189U 20012M   25171.31951933  .00000069  00000+0  23532-4 0  9995
2 45189  53.0541 144.4424 0001422  82.6424 277.4726 15.06393580292519
STARLINK-1234           
1 45190U 20012N   25171.20526192 -.00001232  00000+0 -63824-4 0  9993
2 45190  53.0565 104.9510 0001743  89.1865 270.9323 15.06388339295735
STARLINK-1237           
1 45192U 20012Q   25171.58335648  .01382540  00000+0  14098-1 0  9999
2 45192  53.0567 137.5552 0001324  73.6153  55.7084 15.61801002  5684
STARLINK-1240           
1 45194U 20012S   25171.19465968  .00115366  00000+0  12512-2 0  9996
2 45194  53.0486 136.8656 0003031 133.7550 226.3715 15.62683785295280
STARLINK-1244           
1 45196U 20012U   25171.58335648  .00065551  00000+0  65204-3 0  9999
2 45196  53.0479 136.5481 0001437 106.2744 302.2331 15.65130280  5620
STARLINK-1269           
1 45197U 20012V   25171.33057651  .00000517  00000+0  53597-4 0  9992
2 45197  53.0546 144.3906 0000664  73.9260 286.1802 15.06391432295266
STARLINK-1154           
1 45198U 20012W   25171.58676278  .00000632  00000+0  61309-4 0  9990
2 45198  53.0546 123.2407 0001280  87.9926 272.1210 15.06393116295559
STARLINK-1199           
1 45201U 20012Z   25171.26607737 -.00000141  00000+0  94494-5 0  9992
2 45201  53.0547 124.6843 0001396  82.4209 277.6938 15.06393158295560
STARLINK-1206           
1 45204U 20012AC  25171.56555794  .00123604  00000+0  13188-2 0  9990
2 45204  53.0505 116.3606 0001173 129.5230 230.5887 15.63071855295721
STARLINK-1208           
1 45205U 20012AD  25171.55132497  .00118839  00000+0  13876-2 0  9999
2 45205  53.0497 115.3214 0003189 140.3046 219.8200 15.60759427295747
STARLINK-1209           
1 45206U 20012AE  25171.54067484  .00000254  00000+0  35941-4 0  9992
2 45206  53.0552 103.4534 0001537  87.7360 272.3805 15.06398324294931
STARLINK-1210           
1 45207U 20012AF  25171.19457638  .00072589  00000+0  21797-2 0  9990
2 45207  53.0322  99.5727 0008939   1.8646 358.2387 15.33765341295918
STARLINK-1219           
1 45210U 20012AJ  25171.58335648  .00166591  00000+0  12150-2 0  9993
2 45210  53.0487  88.6634 0009590  75.6667  76.1706 15.72215228  5913
STARLINK-1231           
1 45212U 20012AL  25171.57200357  .00000148  00000+0  28834-4 0  9995
2 45212  53.0538 123.3112 0001379  80.6514 279.4631 15.06395931295568
STARLINK-1271           
1 45217U 20012AR  25171.58306637 -.00000884  00000+0 -40434-4 0  9998
2 45217  53.0555 123.2588 0001674  91.0470 269.0711 15.06394332295617
STARLINK-1187           
1 45219U 20012AT  25171.05447944  .00874239  48176-3  66711-3 0  9995
2 45219  53.0315  11.6756 0008126 274.7110 224.9732 16.14478878296162
STARLINK-1191           
1 45222U 20012AW  25171.19420745 -.00001340  00000+0 -71134-4 0  9997
2 45222  53.0562 105.0059 0001654  91.3818 268.7361 15.06383032295835
STARLINK-1212           
1 45223U 20012AX  25171.54444564  .00001080  00000+0  91430-4 0  9992
2 45223  53.0550 104.0876 0001518  91.5085 268.6078 15.06397001295886
STARLINK-1215           
1 45225U 20012AZ  25171.50012966 -.00000621  00000+0 -22811-4 0  9996
2 45225  53.0528 103.6347 0001443  71.9868 288.1278 15.06393667295837
STARLINK-1217           
1 45226U 20012BA  25170.52578788  .00104828  00000+0  14738-2 0  9996
2 45226  53.0526 101.0960 0001259 129.5644 230.5478 15.55887290295743
STARLINK-1221           
1 45227U 20012BB  25171.12307210  .00008462  00000+0  27312-3 0  9994
2 45227  53.0695  64.2727 0002267 254.2236 105.8514 15.32977583296336
STARLINK-1222           
1 45228U 20012BC  25171.53330722  .00000221  00000+0  33774-4 0  9999
2 45228  53.0554 103.4824 0001711  75.0042 285.1136 15.06392320295772
STARLINK-1226           
1 45229U 20012BD  25170.23585546  .00001916  00000+0  14743-3 0  9998
2 45229  53.0548 109.3072 0001496  90.3211 269.7950 15.06413122294757
STARLINK-1227           
1 45230U 20012BE  25170.56390562  .00001171  00000+0  97525-4 0  9991
2 45230  53.0546 107.8357 0001349  83.3126 276.8016 15.06396634295751
STARLINK-1238           
1 45233U 20012BH  25171.56348441  .00121321  00000+0  14991-2 0  9998
2 45233  53.0490 115.7141 0003489 137.1866 222.9418 15.59263133295705
STARLINK-1246           
1 45235U 20012BK  25171.30848640 -.00002810  00000+0 -16996-3 0  9999
2 45235  53.0533 144.4907 0000807  89.4706 270.6375 15.06372956295312
STARLINK-1247           
1 45236U 20012BL  25170.91668981  .00080373  00000+0  96794-3 0  9996
2 45236  53.0495  99.0003 0002321 126.5083  98.5335 15.60132177294957
STARLINK-1270           
1 45237U 20012BM  25171.51119753 -.00000788  00000+0 -34036-4 0  9998
2 45237  53.0559 103.5823 0001781  91.0886 269.0307 15.06395473295883
STARLINK-1279           
1 45360U 20019A   25171.46972281 -.00001016  00000+0 -49354-4 0  9993
2 45360  53.0540 233.7679 0001273  94.1322 265.9813 15.06393306290616
STARLINK-1301           
1 45361U 20019B   25171.45774097  .00001370  00000+0  11088-3 0  9991
2 45361  53.0535 243.8232 0001226  88.7607 271.3522 15.06395427290480
STARLINK-1306           
1 45362U 20019C   25170.57495215  .00000108  00000+0  26168-4 0  9990
2 45362  53.0565 267.7877 0001510 103.0863 257.0294 15.06405477290063
STARLINK-1262           
1 45366U 20019G   25171.22368636  .00000887  00000+0  78456-4 0  9994
2 45366  53.0553 264.8754 0001259  99.6449 260.4682 15.06393636290170
